ONEWEB-0620             
1 55161U 23004X   24266.94317325 -.00000220  00000+0 -65570-3 0  9992
2 55161  87.8964 147.0264 0002114  66.0612 294.0737 13.11416894 82960
ONEWEB-0621             
1 55162U 23004Y   24267.19920283  .00000576  00000+0  15900-2 0  9997
2 55162  87.8955 146.9416 0001442  71.4103 288.7181 13.11416596 83004
ONEWEB-0622             
1 55163U 23004Z   24267.43318125  .00000509  00000+0  14011-2 0  9999
2 55163  87.8956 146.9131 0002080  51.3574 308.7739 13.11416667 83009
ONEWEB-0623             
1 55164U 23004AA  24267.15344053  .00000107  00000+0  24248-3 0  9996
2 55164  87.9126 131.7932 0001633  49.7378 310.3896 13.17690524 84351
ONEWEB-0624             
1 55165U 23004AB  24267.34117753  .00000470  00000+0  12700-2 0  9995
2 55165  87.8870 116.4981 0001582  77.0327 283.0978 13.12443384 85175
ONEWEB-0625             
1 55166U 23004AC  24267.52240414  .00000038  00000+0  65797-4 0  9993
2 55166  87.9123 131.7183 0001553  85.0825 275.0483 13.17513546 84390
ONEWEB-0626             
1 55167U 23004AD  24266.90496945  .00000057  00000+0  11378-3 0  9993
2 55167  87.9125 131.8410 0002232  79.7088 280.4295 13.17581561 84318
ONEWEB-0627             
1 55168U 23004AE  24267.34907317  .00000079  00000+0  17092-3 0  9996
2 55168  87.9127 131.7539 0001762  57.2158 302.9143 13.17650393 84376
